[{"OBJECT_NAME":"STARLINK-3133","OBJECT_ID":"2021-104J","EPOCH":"2026-03-09T16:59:52.745568","MEAN_MOTION":15.08840036,"ECCENTRICITY":0.00013058,"INCLINATION":53.2172,"RA_OF_ASC_NODE":229.0392,"ARG_OF_PERICENTER":78.074,"MEAN_ANOMALY":282.0399,"EPHEMERIS_TYPE":0,"CLASSIFICATION_TYPE":"U","NORAD_CAT_ID":49416,"ELEMENT_SET_NO":999,"REV_AT_EPOCH":23863,"BSTAR":3.7184974e-5,"MEAN_MOTION_DOT":3.04e-6,"MEAN_MOTION_DDOT":0},{"OBJECT_NAME":"AVUM R\/B","OBJECT_ID":"2015-028B","EPOCH":"2026-03-09T15:47:10.915008","MEAN_MOTION":15.38120394,"ECCENTRICITY":0.01316946,"INCLINATION":98.6577,"RA_OF_ASC_NODE":312.3046,"ARG_OF_PERICENTER":250.9525,"MEAN_ANOMALY":107.7413,"EPHEMERIS_TYPE":0,"CLASSIFICATION_TYPE":"U","NORAD_CAT_ID":40698,"ELEMENT_SET_NO":999,"REV_AT_EPOCH":58785,"BSTAR":0.00031736457,"MEAN_MOTION_DOT":0.00015963,"MEAN_MOTION_DDOT":0}]
